{
  "type": "FeatureCollection",
  "features": [
    {
      "type": "Feature",
      "properties": {
        "norad_id": 22490,
        "name": "SCD 1",
        "group": "resource",
        "lat": 24.672246984700042,
        "lon": 73.9774069029661,
        "alt_km": 752.199522652506,
        "timestamp": "2025-12-03T15:48:02.758080+00:00",
        "meta_object_name": "SCD 1",
        "meta_object_id": "1993-009B",
        "meta_epoch": "2025-12-03T07:10:02.871840",
        "meta_mean_motion": 14.45987838,
        "meta_eccentricity": 0.00418228,
        "meta_inclination": 24.971,
        "meta_ra_of_asc_node": 336.9662,
        "meta_arg_of_pericenter": 224.5876,
        "meta_mean_anomaly": 157.8016,
        "meta_ephemeris_type": 0,
        "meta_classification_type": "U",
        "meta_norad_cat_id": 22490,
        "meta_element_set_no": 999,
        "meta_rev_at_epoch": 73273,
        "meta_bstar": 0.00014031036,
        "meta_mean_motion_dot": 7e-06,
        "meta_mean_motion_ddot": 0,
        "tle_line1": "1 22490U 93009B   25337.29864435  .00000700  00000+0  14031-3 0  9997",
        "tle_line2": "2 22490  24.9710 336.9662 0041822 224.5876 157.8016 14.45987838732735"
      },
      "geometry": {
        "type": "Point",
        "coordinates": [
          73.9774069029661,
          24.672246984700042
        ]
      }
    },
    {
      "type": "Feature",
      "properties": {
        "norad_id": 25397,
        "name": "TECHSAT 1B (GO-32)",
        "group": "resource",
        "lat": 66.46201326845248,
        "lon": -60.65252389433105,
        "alt_km": 802.4727373789492,
        "timestamp": "2025-12-03T15:48:02.758120+00:00",
        "meta_object_name": "TECHSAT 1B (GO-32)",
        "meta_object_id": "1998-043D",
        "meta_epoch": "2025-12-02T22:37:23.051424",
        "meta_mean_motion": 14.24372494,
        "meta_eccentricity": 0.00022459,
        "meta_inclination": 98.9913,
        "meta_ra_of_asc_node": 319.9291,
        "meta_arg_of_pericenter": 73.6007,
        "meta_mean_anomaly": 286.5418,
        "meta_ephemeris_type": 0,
        "meta_classification_type": "U",
        "meta_norad_cat_id": 25397,
        "meta_element_set_no": 999,
        "meta_rev_at_epoch": 42339,
        "meta_bstar": 8.0124787e-05,
        "meta_mean_motion_dot": 1.39e-06,
        "meta_mean_motion_ddot": 0,
        "tle_line1": "1 25397U 98043D   25336.94262791  .00000139  00000+0  80125-4 0  9991",
        "tle_line2": "2 25397  98.9913 319.9291 0002245  73.6007 286.5418 14.24372494423392"
      },
      "geometry": {
        "type": "Point",
        "coordinates": [
          -60.65252389433105,
          66.46201326845248
        ]
      }
    },
    {
      "type": "Feature",
      "properties": {
        "norad_id": 25504,
        "name": "SCD 2",
        "group": "resource",
        "lat": 12.341214797954379,
        "lon": -10.11509787976604,
        "alt_km": 732.2658359249435,
        "timestamp": "2025-12-03T15:48:02.758134+00:00",
        "meta_object_name": "SCD 2",
        "meta_object_id": "1998-060A",
        "meta_epoch": "2025-12-03T07:34:14.747808",
        "meta_mean_motion": 14.45414838,
        "meta_eccentricity": 0.00166895,
        "meta_inclination": 24.9937,
        "meta_ra_of_asc_node": 200.0088,
        "meta_arg_of_pericenter": 212.8278,
        "meta_mean_anomaly": 308.9112,
        "meta_ephemeris_type": 0,
        "meta_classification_type": "U",
        "meta_norad_cat_id": 25504,
        "meta_element_set_no": 999,
        "meta_rev_at_epoch": 43195,
        "meta_bstar": 0.00010911376,
        "meta_mean_motion_dot": 5.73e-06,
        "meta_mean_motion_ddot": 0,
        "tle_line1": "1 25504U 98060A   25337.31544847  .00000573  00000+0  10911-3 0  9994",
        "tle_line2": "2 25504  24.9937 200.0088 0016689 212.8278 308.9112 14.45414838431958"
      },
      "geometry": {
        "type": "Point",
        "coordinates": [
          -10.11509787976604,
          12.341214797954379
        ]
      }
    },
    {
      "type": "Feature",
      "properties": {
        "norad_id": 25757,
        "name": "DLR-TUBSAT",
        "group": "resource",
        "lat": 80.79167230990771,
        "lon": -148.11858847737744,
        "alt_km": 716.4208861203306,
        "timestamp": "2025-12-03T15:48:02.758145+00:00",
        "meta_object_name": "DLR-TUBSAT",
        "meta_object_id": "1999-029B",
        "meta_epoch": "2025-12-03T05:27:06.500448",
        "meta_mean_motion": 14.52351559,
        "meta_eccentricity": 0.00133881,
        "meta_inclination": 98.6555,
        "meta_ra_of_asc_node": 321.4478,
        "meta_arg_of_pericenter": 222.7864,
        "meta_mean_anomaly": 137.2289,
        "meta_ephemeris_type": 0,
        "meta_classification_type": "U",
        "meta_norad_cat_id": 25757,
        "meta_element_set_no": 999,
        "meta_rev_at_epoch": 40480,
        "meta_bstar": 6.0372164e-05,
        "meta_mean_motion_dot": 1.97e-06,
        "meta_mean_motion_ddot": 0,
        "tle_line1": "1 25757U 99029B   25337.22715857  .00000197  00000+0  60372-4 0  9990",
        "tle_line2": "2 25757  98.6555 321.4478 0013388 222.7864 137.2289 14.52351559404807"
      },
      "geometry": {
        "type": "Point",
        "coordinates": [
          -148.11858847737744,
          80.79167230990771
        ]
      }
    },
    {
      "type": "Feature",
      "properties": {
        "norad_id": 25994,
        "name": "TERRA",
        "group": "resource",
        "lat": -56.50588185662336,
        "lon": -162.55716236349588,
        "alt_km": 698.4872795336478,
        "timestamp": "2025-12-03T15:48:02.758156+00:00",
        "meta_object_name": "TERRA",
        "meta_object_id": "1999-068A",
        "meta_epoch": "2025-12-03T06:50:11.283648",
        "meta_mean_motion": 14.60934762,
        "meta_eccentricity": 0.00034007,
        "meta_inclination": 97.9762,
        "meta_ra_of_asc_node": 29.3156,
        "meta_arg_of_pericenter": 116.8267,
        "meta_mean_anomaly": 317.1669,
        "meta_ephemeris_type": 0,
        "meta_classification_type": "U",
        "meta_norad_cat_id": 25994,
        "meta_element_set_no": 999,
        "meta_rev_at_epoch": 38100,
        "meta_bstar": 0.00016958517,
        "meta_mean_motion_dot": 7.86e-06,
        "meta_mean_motion_ddot": 0,
        "tle_line1": "1 25994U 99068A   25337.28485282  .00000786  00000+0  16959-3 0  9993",
        "tle_line2": "2 25994  97.9762  29.3156 0003400 116.8267 317.1669 14.60934762381002"
      },
      "geometry": {
        "type": "Point",
        "coordinates": [
          -162.55716236349588,
          -56.50588185662336
        ]
      }
    },
    {
      "type": "Feature",
      "properties": {
        "norad_id": 27004,
        "name": "MAROC-TUBSAT",
        "group": "resource",
        "lat": -53.78683690749527,
        "lon": 159.5839936412182,
        "alt_km": 992.3852128556546,
        "timestamp": "2025-12-03T15:48:02.758167+00:00",
        "meta_object_name": "MAROC-TUBSAT",
        "meta_object_id": "2001-056D",
        "meta_epoch": "2025-12-03T00:51:45.195264",
        "meta_mean_motion": 13.70252146,
        "meta_eccentricity": 0.00191069,
        "meta_inclination": 99.7912,
        "meta_ra_of_asc_node": 145.3111,
        "meta_arg_of_pericenter": 285.9891,
        "meta_mean_anomaly": 190.2699,
        "meta_ephemeris_type": 0,
        "meta_classification_type": "U",
        "meta_norad_cat_id": 27004,
        "meta_element_set_no": 999,
        "meta_rev_at_epoch": 19932,
        "meta_bstar": 3.3076027e-05,
        "meta_mean_motion_dot": -1.8e-07,
        "meta_mean_motion_ddot": 0,
        "tle_line1": "1 27004U 01056D   25337.03593976 -.00000018  00000+0  33076-4 0  9999",
        "tle_line2": "2 27004  99.7912 145.3111 0019106 285.9891 190.2699 13.70252146199328"
      },
      "geometry": {
        "type": "Point",
        "coordinates": [
          159.5839936412182,
          -53.78683690749527
        ]
      }
    },
    {
      "type": "Feature",
      "properties": {
        "norad_id": 27424,
        "name": "AQUA",
        "group": "resource",
        "lat": 79.44430640127986,
        "lon": -114.09449489986424,
        "alt_km": 679.5889447120562,
        "timestamp": "2025-12-03T15:48:02.758177+00:00",
        "meta_object_name": "AQUA",
        "meta_object_id": "2002-022A",
        "meta_epoch": "2025-12-03T09:22:17.037408",
        "meta_mean_motion": 14.61772008,
        "meta_eccentricity": 7.528e-05,
        "meta_inclination": 98.4024,
        "meta_ra_of_asc_node": 298.1185,
        "meta_arg_of_pericenter": 108.5664,
        "meta_mean_anomaly": 6.1363,
        "meta_ephemeris_type": 0,
        "meta_classification_type": "U",
        "meta_norad_cat_id": 27424,
        "meta_element_set_no": 999,
        "meta_rev_at_epoch": 25466,
        "meta_bstar": 0.00033697547,
        "meta_mean_motion_dot": 1.632e-05,
        "meta_mean_motion_ddot": 0,
        "tle_line1": "1 27424U 02022A   25337.39047497  .00001632  00000+0  33698-3 0  9991",
        "tle_line2": "2 27424  98.4024 298.1185 0000752 108.5664   6.1363 14.61772008254664"
      },
      "geometry": {
        "type": "Point",
        "coordinates": [
          -114.09449489986424,
          79.44430640127986
        ]
      }
    }
  ]
}